IRIDIUM 124             
1 42810U 17039H   26064.81903042  .00000579  00000+0  16613-3 0  9990
2 42810  86.4537 333.5923 0002114  84.3481 275.7961 14.43270964460203
IRIDIUM 128             
1 42811U 17039J   26064.53313205  .00000039  00000+0  67237-5 0  9997
2 42811  86.3909  68.4844 0002060  95.3629 264.7801 14.34217875455126
IRIDIUM 121             
1 42812U 17039K   26064.42188588  .00000025  00000+0  20340-5 0  9999
2 42812  86.3966  37.0214 0002239  90.0964 270.0488 14.34217709454952
IRIDIUM 133             
1 42955U 17061A   26064.56484578  .00000025  00000+0  20346-5 0  9991
2 42955  86.3912  68.5867 0002149  90.1916 269.9526 14.34217634439929
IRIDIUM 100             
1 42956U 17061B   26064.55850272  .00000010  00000+0 -34523-5 0  9996
2 42956  86.3910  68.5102 0002141  90.3020 269.8421 14.34217533439921
IRIDIUM 122             
1 42957U 17061C   26064.52678703  .00000043  00000+0  84610-5 0  9998
2 42957  86.3909  68.5234 0002115  88.3672 271.7766 14.34217898439925
IRIDIUM 129             
1 42958U 17061D   26064.55216053  .00000012  00000+0 -28186-5 0  9991
2 42958  86.3911  68.5788 0002536  86.1398 274.0088 14.34217836439948
IRIDIUM 119             
1 42959U 17061E   26064.52044732  .00000016  00000+0 -14792-5 0  9994
2 42959  86.3911  68.5875 0002126  85.5153 274.6286 14.34217664439959
IRIDIUM 107             
1 42960U 17061F   26064.53947409  .00000025  00000+0  18563-5 0  9999
2 42960  86.3911  68.6000 0001872  86.7048 273.4362 14.34217861439967
IRIDIUM 132             
1 42961U 17061G   26064.47604806  .00000049  00000+0  10602-4 0  9995
2 42961  86.3911  68.6068 0002107  90.0586 270.0851 14.34217915439954
IRIDIUM 136             
1 42962U 17061H   26064.50776178  .00000000  00000+0 -72357-5 0  9996
2 42962  86.3910  68.5998 0002040  86.9968 273.1462 14.34217591439973
IRIDIUM 139             
1 42963U 17061J   26064.51410479  .00000008  00000+0 -40651-5 0  9997
2 42963  86.3912  68.6575 0001978  91.0056 269.1367 14.34217564439982
IRIDIUM 125             
1 42964U 17061K   26064.50141851  .00000008  00000+0 -43815-5 0  9997
2 42964  86.3913  68.7221 0001870  74.0898 286.0503 14.34217615439997
IRIDIUM 135             
1 43070U 17083A   26064.75462383  .00000415  00000+0  14119-3 0  9997
2 43070  86.4020   5.2363 0002194  86.0287 274.1159 14.34219559429324
IRIDIUM 138             
1 43071U 17083B   26064.36137963 -.00000019  00000+0 -13877-4 0  9991
2 43071  86.4027   5.0804 0002218  75.5162 284.6280 14.34217400429258
IRIDIUM 116             
1 43072U 17083C   26064.81804586  .00000032  00000+0  43726-5 0  9994
2 43072  86.4021   5.1971 0002072  93.7510 266.3922 14.34217805429356
IRIDIUM 130             
1 43073U 17083D   26064.85610080  .00000134  00000+0  40800-4 0  9995
2 43073  86.4025   5.4462 0001890  88.6892 271.4520 14.34217988429300
